{"type":"Feature","properties":{"name":"New Zealand \u2014 mainland coastline","source":"Natural Earth 1:50m admin-0 countries (public domain)","note":"Chatham and subantarctic islands omitted; see scripts/ for the extraction.","rings":7},"geometry":{"type":"MultiPolygon","coordinates":[[[[173.1153,-41.2793],[173.2309,-41.2842],[173.3378,-41.2109],[173.4473,-41.1514],[173.5625,-41.1021],[173.7379,-40.989],[173.7838,-40.9724],[173.8976,-40.9508],[173.9472,-40.9241],[174.0024,-40.9178],[173.9528,-40.9849],[173.8898,-41.0072],[173.8799,-41.0314],[173.9151,-41.0701],[173.8604,-41.1244],[173.8624,-41.1921],[173.7979,-41.272],[173.8971,-41.2394],[173.9334,-41.1873],[173.9146,-41.158],[173.9576,-41.0999],[174.024,-41.0723],[173.9976,-41.0281],[173.9994,-40.9933],[174.0806,-41.0062],[174.1212,-41.0047],[174.1532,-40.9909],[174.2118,-40.9854],[174.2238,-41.0244],[174.3025,-41.0195],[174.2739,-41.0688],[174.2137,-41.1256],[174.1995,-41.1602],[174.1031,-41.2174],[174.0386,-41.2419],[174.1381,-41.2482],[174.2836,-41.1716],[174.3701,-41.1037],[174.3676,-41.1884],[174.2973,-41.2643],[174.2371,-41.3122],[174.1695,-41.3271],[174.1021,-41.3659],[174.0693,-41.4295],[174.0729,-41.4717],[174.0924,-41.5052],[174.1611,-41.5618],[174.0837,-41.6708],[174.1699,-41.6572],[174.2171,-41.6777],[174.2831,-41.7406],[174.2434,-41.8131],[174.2154,-41.8502],[174.0473,-42.003],[173.9739,-42.0806],[173.888,-42.1302],[173.8892,-42.2116],[173.8398,-42.2709],[173.5893,-42.4739],[173.5451,-42.518],[173.3476,-42.8408],[173.2212,-42.9766],[173.1488,-43.0228],[173.0724,-43.0603],[172.8889,-43.1242],[172.808,-43.1978],[172.7186,-43.2588],[172.624,-43.2725],[172.627,-43.2995],[172.6875,-43.3146],[172.7348,-43.3548],[172.6997,-43.3997],[172.6322,-43.4279],[172.5622,-43.436],[172.5267,-43.4647],[172.6935,-43.4443],[172.7404,-43.4679],[172.7492,-43.5173],[172.7666,-43.5619],[172.807,-43.621],[172.9473,-43.6586],[173.0732,-43.6762],[173.098,-43.7035],[173.1169,-43.7979],[173.0939,-43.8441],[173.0656,-43.8746],[173.0233,-43.8854],[172.9206,-43.8914],[172.8177,-43.8701],[172.7493,-43.8131],[172.5547,-43.8313],[172.5027,-43.8437],[172.476,-43.8334],[172.5838,-43.7735],[172.5272,-43.7395],[172.4804,-43.7267],[172.4297,-43.7465],[172.3956,-43.7778],[172.3853,-43.8296],[172.3504,-43.8594],[172.2966,-43.8679],[172.2207,-43.825],[172.1458,-43.7636],[172.0355,-43.7018],[172.0522,-43.74],[172.1372,-43.8338],[172.1798,-43.896],[172.0808,-43.9456],[171.9776,-43.9843],[171.8906,-44.0069],[171.8084,-44.0423],[171.712,-44.0975],[171.659,-44.1172],[171.5178,-44.1184],[171.4426,-44.1358],[171.4175,-44.2087],[171.3646,-44.255],[171.2407,-44.2642],[171.2854,-44.2787],[171.313,-44.3019],[171.2311,-44.5212],[171.2131,-44.6122],[171.1979,-44.7679],[171.1463,-44.9123],[170.999,-44.9114],[171.0229,-44.937],[171.1342,-44.9777],[171.1133,-45.0393],[170.9907,-45.1515],[170.9396,-45.2164],[170.8899,-45.3739],[170.8152,-45.5191],[170.7006,-45.6843],[170.6997,-45.714],[170.7398,-45.7561],[170.7885,-45.7925],[170.7912,-45.8438],[170.7763,-45.8709],[170.7218,-45.878],[170.6742,-45.8957],[170.4191,-45.941],[170.3354,-45.9918],[170.2668,-46.0826],[170.1861,-46.1608],[169.9183,-46.3344],[169.7607,-46.4798],[169.7291,-46.5214],[169.6866,-46.5517],[169.3423,-46.6205],[169.0986,-46.6307],[168.9658,-46.613],[168.8378,-46.5782],[168.7668,-46.5663],[168.6314,-46.5876],[168.5723,-46.611],[168.4664,-46.5879],[168.3821,-46.6054],[168.3572,-46.5884],[168.3257,-46.5457],[168.3431,-46.4891],[168.3197,-46.4472],[168.2662,-46.4188],[168.2303,-46.3857],[168.1892,-46.3622],[168.0773,-46.3529],[167.9004,-46.3678],[167.842,-46.3662],[167.7221,-46.2271],[167.6822,-46.193],[167.5395,-46.1485],[167.4906,-46.1547],[167.4143,-46.2289],[167.3689,-46.2415],[167.1003,-46.2494],[166.8308,-46.2255],[166.7315,-46.1979],[166.7121,-46.1337],[166.9167,-45.9572],[166.8564,-45.9809],[166.7303,-46.0527],[166.6499,-46.0417],[166.727,-45.9633],[166.7338,-45.9283],[166.718,-45.8894],[166.6127,-45.9554],[166.4932,-45.9639],[166.4776,-45.9027],[166.4883,-45.8318],[166.5129,-45.8117],[166.836,-45.7745],[166.9525,-45.7502],[167.0033,-45.7121],[166.81,-45.699],[166.7977,-45.6456],[166.8256,-45.6028],[166.9908,-45.5317],[166.869,-45.5499],[166.734,-45.5436],[166.7431,-45.4685],[166.7783,-45.4097],[166.9199,-45.4079],[166.8756,-45.3676],[166.8692,-45.3112],[166.9086,-45.3074],[167.0521,-45.3832],[167.1557,-45.4109],[167.1121,-45.3539],[167.1178,-45.318],[167.1453,-45.3019],[167.2301,-45.2903],[167.2068,-45.2803],[167.1273,-45.2658],[167.0328,-45.2225],[167.0227,-45.1767],[167.0259,-45.1236],[167.1279,-45.0508],[167.1882,-45.0941],[167.2595,-45.0822],[167.2051,-45.0481],[167.1719,-44.9971],[167.1945,-44.9635],[167.4107,-44.8279],[167.4662,-44.9583],[167.4792,-44.915],[167.4821,-44.8739],[167.4563,-44.8383],[167.46,-44.8023],[167.485,-44.7714],[167.5776,-44.7408],[167.6981,-44.6413],[167.787,-44.595],[167.8594,-44.6247],[167.909,-44.6647],[167.9016,-44.625],[167.8664,-44.5921],[167.8565,-44.5007],[168.0184,-44.3588],[168.1962,-44.2236],[168.3666,-44.082],[168.4574,-44.0306],[168.651,-43.9722],[168.7748,-43.9965],[168.8064,-43.992],[168.9904,-43.8899],[169.0665,-43.8635],[169.1359,-43.8999],[169.1789,-43.9131],[169.1357,-43.8198],[169.1695,-43.7771],[169.3231,-43.7016],[169.5152,-43.6236],[169.6615,-43.5912],[169.7692,-43.5385],[169.8339,-43.537],[169.824,-43.4972],[169.8351,-43.459],[169.8908,-43.4616],[169.908,-43.4466],[169.859,-43.426],[170.0176,-43.3494],[170.1037,-43.265],[170.1488,-43.2476],[170.1896,-43.2221],[170.2402,-43.1639],[170.3,-43.1446],[170.3558,-43.1536],[170.3961,-43.1822],[170.3743,-43.1347],[170.3028,-43.1076],[170.3795,-43.0662],[170.4587,-43.0377],[170.5358,-43.0585],[170.6118,-43.0918],[170.5358,-43.0407],[170.5236,-43.009],[170.6155,-42.9725],[170.6654,-42.9612],[170.7353,-43.0298],[170.7253,-42.9755],[170.7416,-42.9273],[170.8403,-42.8486],[170.9699,-42.7184],[171.0114,-42.7637],[171.0178,-42.8188],[171.0117,-42.8851],[171.0384,-42.8621],[171.0476,-42.8019],[171.0277,-42.6961],[171.1896,-42.5005],[171.2213,-42.4786],[171.257,-42.4653],[171.3134,-42.4602],[171.2961,-42.4306],[171.2522,-42.402],[171.2965,-42.3025],[171.3227,-42.1891],[171.3603,-42.08],[171.4206,-41.973],[171.4862,-41.7947],[171.5363,-41.7575],[171.6722,-41.7447],[171.7316,-41.7196],[171.8307,-41.6552],[171.948,-41.5387],[172.0107,-41.4447],[172.0934,-41.2016],[172.1395,-40.9473],[172.2728,-40.7587],[172.4682,-40.6222],[172.6406,-40.5183],[172.7111,-40.4967],[172.8302,-40.49],[172.9437,-40.5187],[172.7326,-40.5438],[172.7111,-40.6054],[172.7044,-40.6678],[172.7289,-40.7236],[172.7668,-40.7734],[172.8691,-40.8203],[172.9887,-40.8482],[173.0423,-40.9536],[173.0521,-41.0786],[173.0687,-41.1858],[173.1153,-41.2793]]],[[[173.2694,-34.9348],[173.2846,-34.9806],[173.3399,-34.9479],[173.3812,-34.8965],[173.4479,-34.8443],[173.4387,-34.9285],[173.4727,-34.947],[173.6937,-35.0057],[173.7393,-35.0546],[173.7862,-35.0686],[173.8128,-35.0412],[173.8439,-35.0263],[173.9238,-35.0571],[174.104,-35.1429],[174.1189,-35.1724],[174.1098,-35.2164],[174.1188,-35.2629],[174.1432,-35.3],[174.2032,-35.3086],[174.2829,-35.2535],[174.3203,-35.2467],[174.3733,-35.3245],[174.3932,-35.3686],[174.385,-35.3671],[174.4191,-35.4107],[174.4647,-35.4541],[174.5435,-35.582],[174.5317,-35.627],[174.5086,-35.6674],[174.5807,-35.7855],[174.5335,-35.7938],[174.391,-35.7737],[174.3958,-35.7974],[174.4787,-35.8841],[174.5487,-36.0066],[174.6049,-36.0806],[174.8021,-36.3095],[174.7725,-36.3909],[174.7771,-36.4446],[174.7518,-36.4908],[174.8192,-36.6121],[174.7771,-36.6498],[174.7492,-36.774],[174.7187,-36.7958],[174.7225,-36.8412],[174.802,-36.8532],[174.8499,-36.8726],[174.8914,-36.9094],[174.9172,-36.865],[174.9521,-36.8529],[175.0471,-36.9122],[175.2451,-36.9713],[175.2995,-36.9933],[175.3265,-37.0409],[175.3467,-37.1562],[175.3854,-37.2069],[175.4609,-37.2167],[175.5425,-37.2014],[175.5682,-37.1594],[175.552,-37.0465],[175.4932,-36.8657],[175.4929,-36.8069],[175.5013,-36.748],[175.4874,-36.6896],[175.458,-36.6343],[175.4264,-36.5919],[175.3855,-36.5563],[175.3998,-36.5008],[175.4608,-36.4757],[175.4977,-36.5227],[175.528,-36.5793],[175.6814,-36.747],[175.7722,-36.7352],[175.7807,-36.8046],[175.8422,-36.8751],[175.8762,-36.9577],[175.9211,-37.2046],[175.9901,-37.437],[176.1146,-37.5383],[176.129,-37.5867],[176.0533,-37.5617],[176.0299,-37.5763],[176.0379,-37.6007],[176.1084,-37.6451],[176.1911,-37.667],[176.2432,-37.6639],[176.2917,-37.6801],[176.6147,-37.831],[176.77,-37.8896],[177.1618,-37.9857],[177.274,-37.9935],[177.3359,-37.9908],[177.4533,-37.9574],[177.5583,-37.8975],[177.6489,-37.8078],[177.7273,-37.7056],[177.8127,-37.656],[177.9095,-37.6169],[177.958,-37.5807],[178.0092,-37.5549],[178.2722,-37.5669],[178.3607,-37.6185],[178.476,-37.6598],[178.5362,-37.6921],[178.516,-37.7576],[178.4471,-37.8544],[178.3939,-37.9603],[178.3473,-38.2009],[178.3154,-38.444],[178.2677,-38.5512],[178.1807,-38.6337],[178.0849,-38.6939],[177.9762,-38.7223],[177.9321,-38.8603],[177.9104,-39.0218],[177.9166,-39.0624],[177.9514,-39.0945],[177.9656,-39.1425],[177.9088,-39.2396],[177.8755,-39.2255],[177.8287,-39.1447],[177.7861,-39.1109],[177.6559,-39.0857],[177.5229,-39.0738],[177.4075,-39.0812],[177.2966,-39.1158],[177.1287,-39.1861],[177.0768,-39.2218],[177.0312,-39.2669],[176.9541,-39.3676],[176.9357,-39.4907],[176.9393,-39.5553],[176.9666,-39.6052],[177.1099,-39.6731],[176.968,-39.9107],[176.8422,-40.1578],[176.7707,-40.2284],[176.6888,-40.2935],[176.6115,-40.442],[176.4765,-40.57],[176.3852,-40.6677],[176.3139,-40.7689],[176.2518,-40.8769],[176.1187,-41.0291],[176.06,-41.1297],[175.9829,-41.2133],[175.8396,-41.3201],[175.6873,-41.4117],[175.4471,-41.5383],[175.3803,-41.5801],[175.3098,-41.6106],[175.2222,-41.5744],[175.2045,-41.535],[175.1847,-41.449],[175.1656,-41.4174],[175.0539,-41.3912],[174.9061,-41.4329],[174.8813,-41.424],[174.8752,-41.4043],[174.875,-41.2782],[174.9002,-41.2427],[174.8656,-41.223],[174.8315,-41.2308],[174.8197,-41.2629],[174.8412,-41.2907],[174.757,-41.3253],[174.6695,-41.3263],[174.643,-41.3127],[174.6354,-41.2895],[174.6565,-41.2513],[174.6849,-41.2177],[174.8478,-41.0588],[175.0168,-40.8477],[175.1625,-40.6216],[175.2005,-40.5054],[175.2541,-40.2894],[175.2102,-40.1994],[175.156,-40.1149],[175.0093,-39.9521],[174.8138,-39.8602],[174.6873,-39.8472],[174.5675,-39.813],[174.4547,-39.7352],[174.3521,-39.6434],[174.1486,-39.5682],[173.9344,-39.5091],[173.8121,-39.4258],[173.783,-39.3762],[173.7637,-39.3188],[173.7664,-39.2653],[173.7816,-39.2112],[173.8061,-39.1695],[173.8443,-39.1394],[174.0714,-39.0312],[174.3117,-38.9711],[174.3561,-38.9722],[174.3984,-38.9626],[174.4585,-38.9258],[174.5662,-38.8416],[174.5974,-38.7851],[174.6186,-38.6053],[174.653,-38.4283],[174.7153,-38.2256],[174.8093,-38.0998],[174.84,-38.0227],[174.8017,-37.8955],[174.8368,-37.8489],[174.8796,-37.8208],[174.928,-37.8045],[174.846,-37.6852],[174.7494,-37.5047],[174.7292,-37.4487],[174.7439,-37.3935],[174.7677,-37.3391],[174.7074,-37.3253],[174.6726,-37.2731],[174.5858,-37.0978],[174.6097,-37.0699],[174.6597,-37.0888],[174.7343,-37.2152],[174.7464,-37.1501],[174.8036,-37.1101],[174.8639,-37.0893],[174.9289,-37.0848],[174.782,-36.9438],[174.7329,-36.9494],[174.668,-36.9719],[174.6015,-36.9857],[174.5365,-36.9733],[174.4756,-36.9419],[174.4445,-36.8825],[174.4061,-36.7683],[174.3819,-36.726],[174.1889,-36.4923],[174.2457,-36.485],[174.4016,-36.602],[174.4317,-36.5646],[174.4543,-36.5107],[174.4469,-36.4509],[174.4096,-36.4056],[174.3541,-36.376],[174.3531,-36.3229],[174.3954,-36.2741],[174.3928,-36.24],[174.3035,-36.1705],[174.2679,-36.1631],[174.2521,-36.1956],[174.2775,-36.2437],[174.2537,-36.2491],[174.0364,-36.1225],[173.9693,-36.0206],[173.9145,-35.9087],[173.9089,-35.9542],[173.9173,-36.0182],[174.0031,-36.1463],[174.1424,-36.2895],[174.1664,-36.3276],[174.1458,-36.377],[174.0975,-36.391],[174.0547,-36.3598],[173.991,-36.2372],[173.9451,-36.1759],[173.4122,-35.5426],[173.4803,-35.459],[173.5858,-35.3886],[173.6104,-35.3572],[173.6262,-35.3191],[173.5816,-35.3126],[173.5417,-35.3299],[173.4961,-35.3623],[173.4543,-35.3992],[173.4017,-35.4812],[173.3764,-35.5001],[173.314,-35.4434],[173.2902,-35.4083],[173.2912,-35.3663],[173.2745,-35.3396],[173.2281,-35.3312],[173.1602,-35.2478],[173.1167,-35.2053],[173.1888,-35.1237],[173.1906,-35.0162],[173.1173,-34.9033],[173.0296,-34.7999],[172.8607,-34.6323],[172.706,-34.4552],[172.8737,-34.4329],[173.0439,-34.4291],[172.9638,-34.5352],[172.9998,-34.5965],[173.0544,-34.6482],[173.1711,-34.8069],[173.1813,-34.8527],[173.2405,-34.899],[173.2694,-34.9348]]],[[[168.1449,-46.8622],[168.1453,-46.9021],[168.041,-46.8878],[168.0432,-46.9326],[168.1255,-46.9562],[168.156,-46.9883],[168.2414,-46.979],[168.2606,-47.0271],[168.2409,-47.07],[168.1839,-47.1016],[168.015,-47.1175],[167.9056,-47.1799],[167.8107,-47.1704],[167.785,-47.1761],[167.6764,-47.243],[167.5549,-47.2637],[167.522,-47.2587],[167.5388,-47.199],[167.629,-47.1423],[167.631,-47.0878],[167.6541,-47.0442],[167.7409,-47.0136],[167.742,-46.9568],[167.8008,-46.9065],[167.7652,-46.7977],[167.784,-46.6998],[167.9558,-46.6944],[168.1449,-46.8622]]],[[[175.5432,-36.2793],[175.5512,-36.3339],[175.4746,-36.3145],[175.4446,-36.2732],[175.3588,-36.2307],[175.3462,-36.2178],[175.3366,-36.1348],[175.3816,-36.0948],[175.3896,-36.0777],[175.4094,-36.0709],[175.4443,-36.1146],[175.5126,-36.177],[175.5432,-36.2793]]],[[[166.7463,-45.6559],[166.741,-45.705],[166.7292,-45.7297],[166.6945,-45.7299],[166.6425,-45.7244],[166.5917,-45.7018],[166.5592,-45.7082],[166.532,-45.6998],[166.5671,-45.6444],[166.6856,-45.615],[166.7314,-45.6387],[166.7463,-45.6559]]],[[[173.9146,-40.8637],[173.7809,-40.9218],[173.7862,-40.8814],[173.8124,-40.7937],[173.8733,-40.7493],[173.9033,-40.7463],[173.9645,-40.713],[173.958,-40.7868],[173.9146,-40.8637]]],[[[166.9795,-45.1797],[167.0227,-45.2998],[166.9312,-45.2769],[166.8927,-45.2405],[166.9627,-45.1804],[166.9795,-45.1797]]]]}}